STARLINK-37052          
1 68179U 26050N   26086.50002315  .00017222  00000+0  90590-4 0  9992
2 68179  53.1590 192.4780 0001062 107.1925 208.5178 15.80880464  3302
STARLINK-37035          
1 68180U 26050P   26086.50002315  .00064763  00000+0  32933-3 0  9992
2 68180  53.1590 192.4693 0001034  92.7030 227.2698 15.80864349  3301
STARLINK-37032          
1 68181U 26050Q   26086.50002315  .00044049  00000+0  22561-3 0  9994
2 68181  53.1590 192.4608 0000954  90.4162 233.8259 15.80869593  3301
STARLINK-37082          
1 68182U 26050R   26086.50002315 -.00003162  00000+0 -12478-4 0  9995
2 68182  53.1590 192.4515 0001323  72.3175 256.2074 15.80882320  3300
STARLINK-37102          
1 68183U 26050S   26086.50002315  .00036650  00000+0  18847-3 0  9997
2 68183  53.1589 192.4426 0000970  72.6357 260.1505 15.80869060  3301
STARLINK-36964          
1 68184U 26050T   26086.50002315 -.00098335  00000+0 -49942-3 0  9998
2 68184  53.1589 192.4339 0000993  72.4191 264.6312 15.80913450  3302
STARLINK-37061          
1 68185U 26050U   26086.50002315  .00017747  00000+0  93243-4 0  9999
2 68185  53.1591 192.4253 0001084  81.7738 259.5601 15.80879395  3306
STARLINK-37079          
1 68186U 26050V   26086.50002315  .00109373  00000+0  55126-3 0  9994
2 68186  53.1592 192.4165 0001259  94.2978 251.3066 15.80849891  3302
STARLINK-37006          
1 68187U 26050W   26086.50002315  .00077604  00000+0  39383-3 0  9993
2 68187  53.1592 192.4076 0000756  76.0440 273.8525 15.80837554  3309
STARLINK-36340          
1 68188U 26050X   26086.50002315  .00017273  00000+0  90872-4 0  9991
2 68188  53.1592 192.3987 0001063  95.9220 258.2208 15.80874319  3134
STARLINK-36305          
1 68189U 26050Y   26086.50002315  .00065659  00000+0  33488-3 0  9992
2 68189  53.1592 192.3901 0001002 105.9010 252.6033 15.80793956  3190
STARLINK-37071          
1 68190U 26050Z   26086.50002315 -.00026332  00000+0 -13018-3 0  9998
2 68190  53.1592 192.3723 0001164 117.5493 249.4099 15.80886949  3301
