CCSDS_OMM_VERS = 2.0
CREATION_DATE  = 
ORIGINATOR     = 

OBJECT_NAME    = STARLINK-37052
OBJECT_ID      = 2026-050N
CENTER_NAME    = EARTH
REF_FRAME      = TEME
TIME_SYSTEM    = UTC
MEAN_ELEMENT_THEORY = SGP/SGP4

EPOCH          = 2026-03-27T12:00:02.000160
MEAN_MOTION    = 15.80880464
ECCENTRICITY   = .00010627
INCLINATION    = 53.1590
RA_OF_ASC_NODE = 192.4780
ARG_OF_PERICENTER = 107.1925
MEAN_ANOMALY   = 208.5178

EPHEMERIS_TYPE = 0
CLASSIFICATION_TYPE = U
NORAD_CAT_ID   = 68179
ELEMENT_SET_NO = 999
REV_AT_EPOCH   = 330
BSTAR          = .90590118E-4
MEAN_MOTION_DOT = .17222E-3
MEAN_MOTION_DDOT = 0

CCSDS_OMM_VERS = 2.0
CREATION_DATE  = 
ORIGINATOR     = 

OBJECT_NAME    = STARLINK-37035
OBJECT_ID      = 2026-050P
CENTER_NAME    = EARTH
REF_FRAME      = TEME
TIME_SYSTEM    = UTC
MEAN_ELEMENT_THEORY = SGP/SGP4

EPOCH          = 2026-03-27T12:00:02.000160
MEAN_MOTION    = 15.80864349
ECCENTRICITY   = .00010342
INCLINATION    = 53.1590
RA_OF_ASC_NODE = 192.4693
ARG_OF_PERICENTER = 92.7030
MEAN_ANOMALY   = 227.2698

EPHEMERIS_TYPE = 0
CLASSIFICATION_TYPE = U
NORAD_CAT_ID   = 68180
ELEMENT_SET_NO = 999
REV_AT_EPOCH   = 330
BSTAR          = .32933409E-3
MEAN_MOTION_DOT = .64763E-3
MEAN_MOTION_DDOT = 0

CCSDS_OMM_VERS = 2.0
CREATION_DATE  = 
ORIGINATOR     = 

OBJECT_NAME    = STARLINK-37032
OBJECT_ID      = 2026-050Q
CENTER_NAME    = EARTH
REF_FRAME      = TEME
TIME_SYSTEM    = UTC
MEAN_ELEMENT_THEORY = SGP/SGP4

EPOCH          = 2026-03-27T12:00:02.000160
MEAN_MOTION    = 15.80869593
ECCENTRICITY   = .00009547
INCLINATION    = 53.1590
RA_OF_ASC_NODE = 192.4608
ARG_OF_PERICENTER = 90.4162
MEAN_ANOMALY   = 233.8259

EPHEMERIS_TYPE = 0
CLASSIFICATION_TYPE = U
NORAD_CAT_ID   = 68181
ELEMENT_SET_NO = 999
REV_AT_EPOCH   = 330
BSTAR          = .22560881E-3
MEAN_MOTION_DOT = .44049E-3
MEAN_MOTION_DDOT = 0

CCSDS_OMM_VERS = 2.0
CREATION_DATE  = 
ORIGINATOR     = 

OBJECT_NAME    = STARLINK-37082
OBJECT_ID      = 2026-050R
CENTER_NAME    = EARTH
REF_FRAME      = TEME
TIME_SYSTEM    = UTC
MEAN_ELEMENT_THEORY = SGP/SGP4

EPOCH          = 2026-03-27T12:00:02.000160
MEAN_MOTION    = 15.80882320
ECCENTRICITY   = .0001323
INCLINATION    = 53.1590
RA_OF_ASC_NODE = 192.4515
ARG_OF_PERICENTER = 72.3175
MEAN_ANOMALY   = 256.2074

EPHEMERIS_TYPE = 0
CLASSIFICATION_TYPE = U
NORAD_CAT_ID   = 68182
ELEMENT_SET_NO = 999
REV_AT_EPOCH   = 330
BSTAR          = -.12478406E-4
MEAN_MOTION_DOT = -.3162E-4
MEAN_MOTION_DDOT = 0

CCSDS_OMM_VERS = 2.0
CREATION_DATE  = 
ORIGINATOR     = 

OBJECT_NAME    = STARLINK-37102
OBJECT_ID      = 2026-050S
CENTER_NAME    = EARTH
REF_FRAME      = TEME
TIME_SYSTEM    = UTC
MEAN_ELEMENT_THEORY = SGP/SGP4

EPOCH          = 2026-03-27T12:00:02.000160
MEAN_MOTION    = 15.80869060
ECCENTRICITY   = .00009705
INCLINATION    = 53.1589
RA_OF_ASC_NODE = 192.4426
ARG_OF_PERICENTER = 72.6357
MEAN_ANOMALY   = 260.1505

EPHEMERIS_TYPE = 0
CLASSIFICATION_TYPE = U
NORAD_CAT_ID   = 68183
ELEMENT_SET_NO = 999
REV_AT_EPOCH   = 330
BSTAR          = .18846889E-3
MEAN_MOTION_DOT = .3665E-3
MEAN_MOTION_DDOT = 0

CCSDS_OMM_VERS = 2.0
CREATION_DATE  = 
ORIGINATOR     = 

OBJECT_NAME    = STARLINK-36964
OBJECT_ID      = 2026-050T
CENTER_NAME    = EARTH
REF_FRAME      = TEME
TIME_SYSTEM    = UTC
MEAN_ELEMENT_THEORY = SGP/SGP4

EPOCH          = 2026-03-27T12:00:02.000160
MEAN_MOTION    = 15.80913450
ECCENTRICITY   = .00009935
INCLINATION    = 53.1589
RA_OF_ASC_NODE = 192.4339
ARG_OF_PERICENTER = 72.4191
MEAN_ANOMALY   = 264.6312

EPHEMERIS_TYPE = 0
CLASSIFICATION_TYPE = U
NORAD_CAT_ID   = 68184
ELEMENT_SET_NO = 999
REV_AT_EPOCH   = 330
BSTAR          = -.49941653E-3
MEAN_MOTION_DOT = -.98335E-3
MEAN_MOTION_DDOT = 0

CCSDS_OMM_VERS = 2.0
CREATION_DATE  = 
ORIGINATOR     = 

OBJECT_NAME    = STARLINK-37061
OBJECT_ID      = 2026-050U
CENTER_NAME    = EARTH
REF_FRAME      = TEME
TIME_SYSTEM    = UTC
MEAN_ELEMENT_THEORY = SGP/SGP4

EPOCH          = 2026-03-27T12:00:02.000160
MEAN_MOTION    = 15.80879395
ECCENTRICITY   = .00010849
INCLINATION    = 53.1591
RA_OF_ASC_NODE = 192.4253
ARG_OF_PERICENTER = 81.7738
MEAN_ANOMALY   = 259.5601

EPHEMERIS_TYPE = 0
CLASSIFICATION_TYPE = U
NORAD_CAT_ID   = 68185
ELEMENT_SET_NO = 999
REV_AT_EPOCH   = 330
BSTAR          = .9324276E-4
MEAN_MOTION_DOT = .17747E-3
MEAN_MOTION_DDOT = 0

CCSDS_OMM_VERS = 2.0
CREATION_DATE  = 
ORIGINATOR     = 

OBJECT_NAME    = STARLINK-37079
OBJECT_ID      = 2026-050V
CENTER_NAME    = EARTH
REF_FRAME      = TEME
TIME_SYSTEM    = UTC
MEAN_ELEMENT_THEORY = SGP/SGP4

EPOCH          = 2026-03-27T12:00:02.000160
MEAN_MOTION    = 15.80849891
ECCENTRICITY   = .00012599
INCLINATION    = 53.1592
RA_OF_ASC_NODE = 192.4165
ARG_OF_PERICENTER = 94.2978
MEAN_ANOMALY   = 251.3066

EPHEMERIS_TYPE = 0
CLASSIFICATION_TYPE = U
NORAD_CAT_ID   = 68186
ELEMENT_SET_NO = 999
REV_AT_EPOCH   = 330
BSTAR          = .55126306E-3
MEAN_MOTION_DOT = .109373E-2
MEAN_MOTION_DDOT = 0

CCSDS_OMM_VERS = 2.0
CREATION_DATE  = 
ORIGINATOR     = 

OBJECT_NAME    = STARLINK-37006
OBJECT_ID      = 2026-050W
CENTER_NAME    = EARTH
REF_FRAME      = TEME
TIME_SYSTEM    = UTC
MEAN_ELEMENT_THEORY = SGP/SGP4

EPOCH          = 2026-03-27T12:00:02.000160
MEAN_MOTION    = 15.80837554
ECCENTRICITY   = .00007565
INCLINATION    = 53.1592
RA_OF_ASC_NODE = 192.4076
ARG_OF_PERICENTER = 76.0440
MEAN_ANOMALY   = 273.8525

EPHEMERIS_TYPE = 0
CLASSIFICATION_TYPE = U
NORAD_CAT_ID   = 68187
ELEMENT_SET_NO = 999
REV_AT_EPOCH   = 330
BSTAR          = .39383455E-3
MEAN_MOTION_DOT = .77604E-3
MEAN_MOTION_DDOT = 0

CCSDS_OMM_VERS = 2.0
CREATION_DATE  = 
ORIGINATOR     = 

OBJECT_NAME    = STARLINK-36340
OBJECT_ID      = 2026-050X
CENTER_NAME    = EARTH
REF_FRAME      = TEME
TIME_SYSTEM    = UTC
MEAN_ELEMENT_THEORY = SGP/SGP4

EPOCH          = 2026-03-27T12:00:02.000160
MEAN_MOTION    = 15.80874319
ECCENTRICITY   = .00010633
INCLINATION    = 53.1592
RA_OF_ASC_NODE = 192.3987
ARG_OF_PERICENTER = 95.9220
MEAN_ANOMALY   = 258.2208

EPHEMERIS_TYPE = 0
CLASSIFICATION_TYPE = U
NORAD_CAT_ID   = 68188
ELEMENT_SET_NO = 999
REV_AT_EPOCH   = 313
BSTAR          = .90872149E-4
MEAN_MOTION_DOT = .17273E-3
MEAN_MOTION_DDOT = 0

CCSDS_OMM_VERS = 2.0
CREATION_DATE  = 
ORIGINATOR     = 

OBJECT_NAME    = STARLINK-36305
OBJECT_ID      = 2026-050Y
CENTER_NAME    = EARTH
REF_FRAME      = TEME
TIME_SYSTEM    = UTC
MEAN_ELEMENT_THEORY = SGP/SGP4

EPOCH          = 2026-03-27T12:00:02.000160
MEAN_MOTION    = 15.80793956
ECCENTRICITY   = .00010022
INCLINATION    = 53.1592
RA_OF_ASC_NODE = 192.3901
ARG_OF_PERICENTER = 105.9010
MEAN_ANOMALY   = 252.6033

EPHEMERIS_TYPE = 0
CLASSIFICATION_TYPE = U
NORAD_CAT_ID   = 68189
ELEMENT_SET_NO = 999
REV_AT_EPOCH   = 319
BSTAR          = .33488469E-3
MEAN_MOTION_DOT = .65659E-3
MEAN_MOTION_DDOT = 0

CCSDS_OMM_VERS = 2.0
CREATION_DATE  = 
ORIGINATOR     = 

OBJECT_NAME    = STARLINK-37071
OBJECT_ID      = 2026-050Z
CENTER_NAME    = EARTH
REF_FRAME      = TEME
TIME_SYSTEM    = UTC
MEAN_ELEMENT_THEORY = SGP/SGP4

EPOCH          = 2026-03-27T12:00:02.000160
MEAN_MOTION    = 15.80886949
ECCENTRICITY   = .0001164
INCLINATION    = 53.1592
RA_OF_ASC_NODE = 192.3723
ARG_OF_PERICENTER = 117.5493
MEAN_ANOMALY   = 249.4099

EPHEMERIS_TYPE = 0
CLASSIFICATION_TYPE = U
NORAD_CAT_ID   = 68190
ELEMENT_SET_NO = 999
REV_AT_EPOCH   = 330
BSTAR          = -.1301848E-3
MEAN_MOTION_DOT = -.26332E-3
MEAN_MOTION_DDOT = 0

